[{"OBJECT_NAME":"ONEWEB-0113","OBJECT_ID":"2021-025J","EPOCH":"2026-03-09T17:08:47.217696","MEAN_MOTION":13.13950469,"ECCENTRICITY":0.00013725,"INCLINATION":87.9041,"RA_OF_ASC_NODE":339.9364,"ARG_OF_PERICENTER":82.7439,"MEAN_ANOMALY":277.3847,"EPHEMERIS_TYPE":0,"CLASSIFICATION_TYPE":"U","NORAD_CAT_ID":48050,"ELEMENT_SET_NO":999,"REV_AT_EPOCH":24054,"BSTAR":-0.00028189951,"MEAN_MOTION_DOT":-9.1e-7,"MEAN_MOTION_DDOT":0},{"OBJECT_NAME":"METEOR 3-2","OBJECT_ID":"1988-064A","EPOCH":"2026-03-09T23:05:53.953728","MEAN_MOTION":13.17278782,"ECCENTRICITY":0.00183381,"INCLINATION":82.543,"RA_OF_ASC_NODE":41.0373,"ARG_OF_PERICENTER":95.0105,"MEAN_ANOMALY":320.0575,"EPHEMERIS_TYPE":0,"CLASSIFICATION_TYPE":"U","NORAD_CAT_ID":19336,"ELEMENT_SET_NO":999,"REV_AT_EPOCH":80859,"BSTAR":-0.00028263501,"MEAN_MOTION_DOT":-9.7e-7,"MEAN_MOTION_DDOT":0}]
